[{"OBJECT_NAME":"STARLINK-31777","OBJECT_ID":"2024-080U","EPOCH":"2026-03-09T22:04:32.108448","MEAN_MOTION":15.27579868,"ECCENTRICITY":0.00015605,"INCLINATION":43.0045,"RA_OF_ASC_NODE":40.4255,"ARG_OF_PERICENTER":261.4977,"MEAN_ANOMALY":98.5697,"EPHEMERIS_TYPE":0,"CLASSIFICATION_TYPE":"U","NORAD_CAT_ID":59619,"ELEMENT_SET_NO":999,"REV_AT_EPOCH":10452,"BSTAR":-4.5631065e-5,"MEAN_MOTION_DOT":-1.518e-5,"MEAN_MOTION_DDOT":0},{"OBJECT_NAME":"LIME","OBJECT_ID":"2025-009AR","EPOCH":"2026-03-09T17:44:15.459648","MEAN_MOTION":15.28703313,"ECCENTRICITY":0.00016347,"INCLINATION":97.3985,"RA_OF_ASC_NODE":151.4831,"ARG_OF_PERICENTER":35.9029,"MEAN_ANOMALY":324.232,"EPHEMERIS_TYPE":0,"CLASSIFICATION_TYPE":"U","NORAD_CAT_ID":62648,"ELEMENT_SET_NO":999,"REV_AT_EPOCH":6376,"BSTAR":0.00047722827,"MEAN_MOTION_DOT":0.00013254,"MEAN_MOTION_DDOT":0}]
